{
  "type": "FeatureCollection",
  "name": "world_cities",
  "features": [
    {
      "type": "Feature",
      "properties": {"name": "New York", "country": "USA", "population": 8336817, "continent": "North America"},
      "geometry": {"type": "Point", "coordinates": [-74.006, 40.7128]}
    },
    {
      "type": "Feature",
      "properties": {"name": "London", "country": "UK", "population": 8982000, "continent": "Europe"},
      "geometry": {"type": "Point", "coordinates": [-0.1276, 51.5074]}
    },
    {
      "type": "Feature",
      "properties": {"name": "Tokyo", "country": "Japan", "population": 13960000, "continent": "Asia"},
      "geometry": {"type": "Point", "coordinates": [139.6917, 35.6895]}
    },
    {
      "type": "Feature",
      "properties": {"name": "Sydney", "country": "Australia", "population": 5312000, "continent": "Oceania"},
      "geometry": {"type": "Point", "coordinates": [151.2093, -33.8688]}
    },
    {
      "type": "Feature",
      "properties": {"name": "Nairobi", "country": "Kenya", "population": 4397073, "continent": "Africa"},
      "geometry": {"type": "Point", "coordinates": [36.8219, -1.2921]}
    },
    {
      "type": "Feature",
      "properties": {"name": "Sao Paulo", "country": "Brazil", "population": 12330000, "continent": "South America"},
      "geometry": {"type": "Point", "coordinates": [-46.6333, -23.5505]}
    },
    {
      "type": "Feature",
      "properties": {"name": "Mumbai", "country": "India", "population": 20411000, "continent": "Asia"},
      "geometry": {"type": "Point", "coordinates": [72.8777, 19.076]}
    },
    {
      "type": "Feature",
      "properties": {"name": "Cairo", "country": "Egypt", "population": 10100166, "continent": "Africa"},
      "geometry": {"type": "Point", "coordinates": [31.2357, 30.0444]}
    },
    {
      "type": "Feature",
      "properties": {"name": "Mexico City", "country": "Mexico", "population": 9209944, "continent": "North America"},
      "geometry": {"type": "Point", "coordinates": [-99.1332, 19.4326]}
    },
    {
      "type": "Feature",
      "properties": {"name": "Berlin", "country": "Germany", "population": 3748148, "continent": "Europe"},
      "geometry": {"type": "Point", "coordinates": [13.405, 52.52]}
    },
    {
      "type": "Feature",
      "properties": {"name": "Moscow", "country": "Russia", "population": 12506468, "continent": "Europe"},
      "geometry": {"type": "Point", "coordinates": [37.6173, 55.7558]}
    },
    {
      "type": "Feature",
      "properties": {"name": "Beijing", "country": "China", "population": 21540000, "continent": "Asia"},
      "geometry": {"type": "Point", "coordinates": [116.4074, 39.9042]}
    },
    {
      "type": "Feature",
      "properties": {"name": "Lagos", "country": "Nigeria", "population": 15400000, "continent": "Africa"},
      "geometry": {"type": "Point", "coordinates": [3.3792, 6.5244]}
    },
    {
      "type": "Feature",
      "properties": {"name": "Buenos Aires", "country": "Argentina", "population": 15490000, "continent": "South America"},
      "geometry": {"type": "Point", "coordinates": [-58.3816, -34.6037]}
    },
    {
      "type": "Feature",
      "properties": {"name": "Jakarta", "country": "Indonesia", "population": 10770000, "continent": "Asia"},
      "geometry": {"type": "Point", "coordinates": [106.8456, -6.2088]}
    }
  ]
}
